NORAD_CAT_ID,OBJECT_NAME,OBJECT_TYPE,EPOCH,MEAN_MOTION,ECCENTRICITY,INCLINATION,RA_OF_ASC_NODE,ARG_OF_PERICENTER,MEAN_ANOMALY,BSTAR,MEAN_MOTION_DOT,MEAN_MOTION_DDOT,TLE_LINE0,TLE_LINE1,TLE_LINE2,SEMIMAJOR_AXIS,PERIOD,APOGEE,PERIGEE,DECAYED
53159.0,STARLINK-4111,PAYLOAD,2022-12-20 14:38:08,15.08853091,0.0002764,53.2186,39.2493,29.3572,330.7575,0.0001204,1.629e-05,0.0,0 STARLINK-4111,1 53159U 22083AD  22354.60982361  .00001629  00000-0  12040-3 0  9997,2 53159  53.2186  39.2493 0002764  29.3572 330.7575 15.08853091 24597,6917.84,95.437,541.617,537.793,0.0
53159.0,STARLINK-4111,PAYLOAD,2022-12-21 11:18:10,15.08833706,0.0002784,53.2182,35.383,26.0496,334.0635,-0.00010199,-1.911e-05,0.0,0 STARLINK-4111,1 53159U 22083AD  22355.47094994 -.00001911  00000-0 -10199-3 0  9998,2 53159  53.2182  35.3830 0002784  26.0496 334.0635 15.08833706 24726,6917.9,95.438,541.691,537.839,0.0
53159.0,STARLINK-4111,PAYLOAD,2022-12-22 03:12:00,15.08849442,0.000273,53.2189,32.4091,26.1899,333.9231,-1.2677e-05,-4.9000000000000005e-06,0.0,0 STARLINK-4111,1 53159U 22083AD  22356.13334232 -.00000490  00000-0 -12677-4 0  9999,2 53159  53.2189  32.4091 0002730  26.1899 333.9231 15.08849442 24824,6917.852,95.437,541.605,537.828,0.0
53159.0,STARLINK-4111,PAYLOAD,2022-12-22 09:33:33,15.08840473,0.0002736,53.2185,31.2198,23.0271,337.0844,-6.4348e-05,-1.313e-05,0.0,0 STARLINK-4111,1 53159U 22083AD  22356.39830912 -.00001313  00000-0 -64348-4 0  9990,2 53159  53.2185  31.2198 0002736  23.0271 337.0844 15.08840473 24865,6917.879,95.438,541.637,537.851,0.0
53159.0,STARLINK-4111,PAYLOAD,2022-12-22 11:08:56,15.08841935,0.0002806,53.2187,30.9224,24.3106,335.8018,-5.8391e-05,-1.218e-05,0.0,0 STARLINK-4111,1 53159U 22083AD  22356.46454797 -.00001218  00000-0 -58391-4 0  9996,2 53159  53.2187  30.9224 0002806  24.3106 335.8018 15.08841935 24247,6917.874,95.437,541.681,537.798,0.0
53159.0,STARLINK-4111,PAYLOAD,2022-12-22 19:05:52,15.08840479,0.0002484,53.2188,29.4356,28.498,331.6148,-5.5925e-05,-1.178e-05,0.0,0 STARLINK-4111,1 53159U 22083AD  22356.79574873 -.00001178  00000-0 -55925-4 0  9995,2 53159  53.2188  29.4356 0002484  28.4980 331.6148 15.08840479 24299,6917.879,95.438,541.462,538.026,0.0
53159.0,STARLINK-4111,PAYLOAD,2022-12-23 03:02:48,15.088308800000002,0.0002745,53.2189,27.9488,25.3152,334.7974,4.0908e-05,3.62e-06,0.0,0 STARLINK-4111,1 53159U 22083AD  22357.12695498  .00000362  00000-0  40908-4 0  9997,2 53159  53.2189  27.9488 0002745  25.3152 334.7974 15.08830880 24977,6917.908,95.438,541.672,537.874,0.0
53159.0,STARLINK-4111,PAYLOAD,2022-12-23 12:35:07,15.08826932,0.0002787,53.2188,26.1654,23.0621,337.0496,0.00012764,1.743e-05,0.0,0 STARLINK-4111,1 53159U 22083AD  22357.52439691  .00001743  00000-0  12764-3 0  9994,2 53159  53.2188  26.1654 0002787  23.0621 337.0496 15.08826932 24400,6917.92,95.438,541.7130000000002,537.857,0.0
53159.0,STARLINK-4111,PAYLOAD,2022-12-23 18:56:40,15.08825987,0.0002792,53.2188,24.9757,22.7894,337.3221,8.763899999999999e-05,1.106e-05,0.0,0 STARLINK-4111,1 53159U 22083AD  22357.78936092  .00001106  00000-0  87639-4 0  9996,2 53159  53.2188  24.9757 0002792  22.7894 337.3221 15.08825987 24446,6917.9230000000025,95.438,541.72,537.857,0.0
53159.0,STARLINK-4111,PAYLOAD,2022-12-24 10:50:31,15.0884221,0.0002928,53.219,22.0017,25.3446,334.7689,0.00016454,2.331e-05,0.0,0 STARLINK-4111,1 53159U 22083AD  22358.45175024  .00002331  00000-0  16454-3 0  9998,2 53159  53.2190  22.0017 0002928  25.3446 334.7689 15.08842210 25178,6917.874,95.437,541.764,537.7130000000002,0.0
53159.0,STARLINK-4111,PAYLOAD,2022-12-24 18:47:27,15.08836026,0.0002971,53.2191,20.515,27.2608,332.8540000000001,7.421600000000001e-05,8.93e-06,0.0,0 STARLINK-4111,1 53159U 22083AD  22358.78295787  .00000893  00000-0  74216-4 0  9995,2 53159  53.2191  20.5150 0002971  27.2608 332.8540 15.08836026 25228,6917.893,95.438,541.813,537.702,0.0
53159.0,STARLINK-4111,PAYLOAD,2022-12-25 07:30:32,15.08840803,0.0002668,53.2191,18.1369,21.7905,338.32,0.00011657,1.567e-05,0.0,0 STARLINK-4111,1 53159U 22083AD  22359.31287371  .00001567  00000-0  11657-3 0  9993,2 53159  53.2191  18.1369 0002668  21.7905 338.3200 15.08840803 24675,6917.878000000002,95.438,541.589,537.8969999999998,0.0
53159.0,STARLINK-4111,PAYLOAD,2022-12-25 18:38:14,15.08840575,0.0002825,53.2192,16.0558,24.03,336.0823,6.1747e-05,6.94e-06,0.0,0 STARLINK-4111,1 53159U 22083AD  22359.77655551  .00000694  00000-0  61747-4 0  9998,2 53159  53.2192  16.0558 0002825  24.0300 336.0823 15.08840575 24743,6917.879,95.438,541.698,537.789,0.0
53159.0,STARLINK-4111,PAYLOAD,2022-12-26 00:59:47,15.08836609,0.0002851,53.2186,14.8676,23.0769,337.0351,0.00011181,1.491e-05,0.0,0 STARLINK-4111,1 53159U 22083AD  22360.04151763  .00001491  00000-0  11181-3 0  9998,2 53159  53.2186  14.8676 0002851  23.0769 337.0351 15.08836609 25415,6917.891,95.438,541.7280000000002,537.783,0.0
53159.0,STARLINK-4111,PAYLOAD,2022-12-26 07:21:19,15.08838486,0.0003069,53.2196,13.6768,29.1295,330.9868,2.3281e-05,8.2e-07,0.0,0 STARLINK-4111,1 53159U 22083AD  22360.30648082  .00000082  00000-0  23281-4 0  9992,2 53159  53.2196  13.6768 0003069  29.1295 330.9868 15.08838486 24822,6917.885,95.438,541.873,537.627,0.0
53159.0,STARLINK-4111,PAYLOAD,2022-12-26 18:29:01,15.08842449,0.0002819,53.2203,11.594,25.4978,334.6153,0.00011687,1.572e-05,0.0,0 STARLINK-4111,1 53159U 22083AD  22360.77015484  .00001572  00000-0  11687-3 0  9998,2 53159  53.2203  11.5940 0002819  25.4978 334.6153 15.08842449 24898,6917.873000000001,95.437,541.688,537.788,0.0
53159.0,STARLINK-4111,PAYLOAD,2022-12-27 00:50:33,15.08847307,0.0002836,53.2201,10.4042,26.7708,333.343,0.00013344,1.836e-05,0.0,0 STARLINK-4111,1 53159U 22083AD  22361.03511160  .00001836  00000-0  13344-3 0  9995,2 53159  53.2201  10.4042 0002836  26.7708 333.3430 15.08847307 25568,6917.858,95.437,541.685,537.761,0.0
53159.0,STARLINK-4111,PAYLOAD,2022-12-27 10:22:51,15.08855196,0.0002766,53.2197,8.6199,27.2355,332.8781,0.00011523,1.547e-05,0.0,0 STARLINK-4111,1 53159U 22083AD  22361.43254500  .00001547  00000-0  11523-3 0  9997,2 53159  53.2197   8.6199 0002766  27.2355 332.8781 15.08855196 24994,6917.834,95.437,541.612,537.785,0.0
53159.0,STARLINK-4111,PAYLOAD,2022-12-28 00:41:20,15.08853234,0.00029,53.219,5.9435,26.161,333.9529,0.00049405,7.586e-05,0.0,0 STARLINK-4111,1 53159U 22083AD  22362.02870610  .00007586  00000-0  49405-3 0  9998,2 53159  53.2190   5.9435 0002900  26.1610 333.9529 15.08853234 25086,6917.84,95.437,541.711,537.6990000000002,0.0
53159.0,STARLINK-4111,PAYLOAD,2022-12-29 00:32:07,15.08839692,0.0002589,53.2187,1.4809,18.5769,341.5317,-6.3304e-05,-1.296e-05,0.0,0 STARLINK-4111,1 53159U 22083AD  22363.02230847 -.00001296  00000-0 -63304-4 0  9990,2 53159  53.2187   1.4809 0002589  18.5769 341.5317 15.08839692 25869,6917.880999999999,95.438,541.5369999999998,537.955,0.0
53159.0,STARLINK-4111,PAYLOAD,2022-12-29 10:04:27,15.08826007,0.0003068,53.2177,359.7015,22.6633,337.4494,-0.00016456,-2.906e-05,0.0,0 STARLINK-4111,1 53159U 22083AD  22363.41975854 -.00002906  00000-0 -16456-3 0  9991,2 53159  53.2177 359.7015 0003068  22.6633 337.4494 15.08826007 25928,6917.9230000000025,95.438,541.911,537.6659999999998,0.0
53159.0,STARLINK-4111,PAYLOAD,2022-12-29 16:26:00,15.08822668,0.0002995,53.2182,358.5118,22.9867,337.1258,-0.00017814,-3.121e-05,0.0,0 STARLINK-4111,1 53159U 22083AD  22363.68473175 -.00003121  00000-0 -17814-3 0  9998,2 53159  53.2182 358.5118 0002995  22.9867 337.1258 15.08822668 25963,6917.933000000001,95.439,541.87,537.726,0.0
53159.0,STARLINK-4111,PAYLOAD,2022-12-30 09:55:14,15.08839572,0.0003018999999999,53.219,355.2397,21.1149,338.9967,8.855900000000001e-06,-1.48e-06,0.0,0 STARLINK-4111,1 53159U 22083AD  22364.41336072 -.00000148  00000-0  88559-5 0  9995,2 53159  53.2190 355.2397 0003019  21.1149 338.9967 15.08839572 26078,6917.882,95.438,541.835,537.658,0.0
53159.0,STARLINK-4111,PAYLOAD,2022-12-31 03:24:28,15.08851575,0.0003024,53.2197,351.9696,20.1391,339.972,0.00045117,6.902e-05,0.0,0 STARLINK-4111,1 53159U 22083AD  22365.14199526  .00006902  00000-0  45117-3 0  9991,2 53159  53.2197 351.9696 0003024  20.1391 339.9720 15.08851575 26181,6917.845,95.437,541.802,537.618,0.0
53159.0,STARLINK-4111,PAYLOAD,2022-12-31 06:35:13,15.08868661,0.0003007,53.2188,351.3741,21.9865,338.1255,0.00052424,8.072e-05,0.0,0 STARLINK-4111,1 53159U 22083AD  22365.27446719  .00008072  00000-0  52424-3 0  9993,2 53159  53.2188 351.3741 0003007  21.9865 338.1255 15.08868661 26203,6917.793000000002,95.436,541.738,537.578,0.0
53159.0,STARLINK-4111,PAYLOAD,2022-12-31 16:07:33,15.088634699999998,0.0002944,53.2187,349.5898,18.317,341.7927,0.00057086,8.815e-05,0.0,0 STARLINK-4111,1 53159U 22083AD  22365.67191024  .00008815  00000-0  57086-3 0  9997,2 53159  53.2187 349.5898 0002944  18.3170 341.7927 15.08863470 25637,6917.809,95.436,541.71,537.637,0.0
53159.0,STARLINK-4111,PAYLOAD,2023-01-01 08:01:24,15.08838103,0.0003041999999999,53.2185,346.6165,23.4966,336.6164,-0.00042443,-7.037e-05,0.0,0 STARLINK-4111,1 53159U 22083AD  23001.33431043 -.00007037  00000-0 -42443-3 0  9994,2 53159  53.2185 346.6165 0003042  23.4966 336.6164 15.08838103 26362,6917.886,95.438,541.856,537.6469999999998,0.0
53159.0,STARLINK-4111,PAYLOAD,2023-01-01 11:12:10,15.08830314,0.0003123999999999,53.2182,346.0219,23.9606,336.1531,-0.00030787,-5.184e-05,0.0,0 STARLINK-4111,1 53159U 22083AD  23001.46679189 -.00005184  00000-0 -30787-3 0  9992,2 53159  53.2182 346.0219 0003124  23.9606 336.1531 15.08830314 25751,6917.91,95.438,541.936,537.614,0.0
53159.0,STARLINK-4111,PAYLOAD,2023-01-01 15:58:20,15.08818046,0.000304,53.2185,345.1279,24.9937,335.1201,-0.00049246,-8.114e-05,0.0,0 STARLINK-4111,1 53159U 22083AD  23001.66551721 -.00008114  00000-0 -49246-3 0  9991,2 53159  53.2185 345.1279 0003040  24.9937 335.1201 15.08818046 26410,6917.946999999999,95.439,541.9159999999998,537.7090000000002,0.0
